CCSDS_OMM_VERS = 2.0
CREATION_DATE  = 
ORIGINATOR     = 

OBJECT_NAME    = STARLINK-35429
OBJECT_ID      = 2025-270C
CENTER_NAME    = EARTH
REF_FRAME      = TEME
TIME_SYSTEM    = UTC
MEAN_ELEMENT_THEORY = SGP/SGP4

EPOCH          = 2025-12-23T18:57:05.300352
MEAN_MOTION    = 15.40759913
ECCENTRICITY   = .00021935
INCLINATION    = 43.0027
RA_OF_ASC_NODE = 128.6594
ARG_OF_PERICENTER = 269.5993
MEAN_ANOMALY   = 90.4612

EPHEMERIS_TYPE = 0
CLASSIFICATION_TYPE = U
NORAD_CAT_ID   = 66590
ELEMENT_SET_NO = 999
REV_AT_EPOCH   = 616
BSTAR          = .14864851E-2
MEAN_MOTION_DOT = .62426E-3
MEAN_MOTION_DDOT = 0

CCSDS_OMM_VERS = 2.0
CREATION_DATE  = 
ORIGINATOR     = 

OBJECT_NAME    = STARLINK-36058
OBJECT_ID      = 2025-270D
CENTER_NAME    = EARTH
REF_FRAME      = TEME
TIME_SYSTEM    = UTC
MEAN_ELEMENT_THEORY = SGP/SGP4

EPOCH          = 2025-12-24T00:00:00.998784
MEAN_MOTION    = 15.40684723
ECCENTRICITY   = .0001443
INCLINATION    = 43.0007
RA_OF_ASC_NODE = 127.2349
ARG_OF_PERICENTER = 277.3057
MEAN_ANOMALY   = 258.0125

EPHEMERIS_TYPE = 0
CLASSIFICATION_TYPE = U
NORAD_CAT_ID   = 66591
ELEMENT_SET_NO = 999
REV_AT_EPOCH   = 599
BSTAR          = .24874E-3
MEAN_MOTION_DOT = .10095E-3
MEAN_MOTION_DDOT = 0

CCSDS_OMM_VERS = 2.0
CREATION_DATE  = 
ORIGINATOR     = 

OBJECT_NAME    = STARLINK-36066
OBJECT_ID      = 2025-270E
CENTER_NAME    = EARTH
REF_FRAME      = TEME
TIME_SYSTEM    = UTC
MEAN_ELEMENT_THEORY = SGP/SGP4

EPOCH          = 2025-12-24T01:45:59.627520
MEAN_MOTION    = 15.40719830
ECCENTRICITY   = .00014935
INCLINATION    = 43.0005
RA_OF_ASC_NODE = 127.3548
ARG_OF_PERICENTER = 281.5377
MEAN_ANOMALY   = 78.5312

EPHEMERIS_TYPE = 0
CLASSIFICATION_TYPE = U
NORAD_CAT_ID   = 66592
ELEMENT_SET_NO = 999
REV_AT_EPOCH   = 599
BSTAR          = .14926122E-2
MEAN_MOTION_DOT = .62601E-3
MEAN_MOTION_DDOT = 0

CCSDS_OMM_VERS = 2.0
CREATION_DATE  = 
ORIGINATOR     = 

OBJECT_NAME    = STARLINK-36031
OBJECT_ID      = 2025-270F
CENTER_NAME    = EARTH
REF_FRAME      = TEME
TIME_SYSTEM    = UTC
MEAN_ELEMENT_THEORY = SGP/SGP4

EPOCH          = 2025-12-24T01:23:24.929952
MEAN_MOTION    = 15.40743840
ECCENTRICITY   = .00008634
INCLINATION    = 43.0006
RA_OF_ASC_NODE = 127.2322
ARG_OF_PERICENTER = 287.0382
MEAN_ANOMALY   = 73.0380

EPHEMERIS_TYPE = 0
CLASSIFICATION_TYPE = U
NORAD_CAT_ID   = 66593
ELEMENT_SET_NO = 999
REV_AT_EPOCH   = 609
BSTAR          = .10050027E-2
MEAN_MOTION_DOT = .4197E-3
MEAN_MOTION_DDOT = 0

CCSDS_OMM_VERS = 2.0
CREATION_DATE  = 
ORIGINATOR     = 

OBJECT_NAME    = STARLINK-36032
OBJECT_ID      = 2025-270G
CENTER_NAME    = EARTH
REF_FRAME      = TEME
TIME_SYSTEM    = UTC
MEAN_ELEMENT_THEORY = SGP/SGP4

EPOCH          = 2025-12-23T15:37:29.022240
MEAN_MOTION    = 15.40717156
ECCENTRICITY   = .00031713
INCLINATION    = 43.0045
RA_OF_ASC_NODE = 129.3366
ARG_OF_PERICENTER = 281.7400
MEAN_ANOMALY   = 78.3101

EPHEMERIS_TYPE = 0
CLASSIFICATION_TYPE = U
NORAD_CAT_ID   = 66594
ELEMENT_SET_NO = 999
REV_AT_EPOCH   = 584
BSTAR          = .10129221E-2
MEAN_MOTION_DOT = .42272E-3
MEAN_MOTION_DDOT = 0

CCSDS_OMM_VERS = 2.0
CREATION_DATE  = 
ORIGINATOR     = 

OBJECT_NAME    = STARLINK-35711
OBJECT_ID      = 2025-270H
CENTER_NAME    = EARTH
REF_FRAME      = TEME
TIME_SYSTEM    = UTC
MEAN_ELEMENT_THEORY = SGP/SGP4

EPOCH          = 2025-12-24T08:00:03.000384
MEAN_MOTION    = 15.40645202
ECCENTRICITY   = .00015309
INCLINATION    = 43.0007
RA_OF_ASC_NODE = 125.1923
ARG_OF_PERICENTER = 251.6110
MEAN_ANOMALY   = 24.6525

EPHEMERIS_TYPE = 0
CLASSIFICATION_TYPE = U
NORAD_CAT_ID   = 66595
ELEMENT_SET_NO = 999
REV_AT_EPOCH   = 610
BSTAR          = .16953867E-2
MEAN_MOTION_DOT = .7105E-3
MEAN_MOTION_DDOT = 0

CCSDS_OMM_VERS = 2.0
CREATION_DATE  = 
ORIGINATOR     = 

OBJECT_NAME    = STARLINK-35811
OBJECT_ID      = 2025-270J
CENTER_NAME    = EARTH
REF_FRAME      = TEME
TIME_SYSTEM    = UTC
MEAN_ELEMENT_THEORY = SGP/SGP4

EPOCH          = 2025-12-24T15:52:35.837760
MEAN_MOTION    = 15.40712163
ECCENTRICITY   = .0002116
INCLINATION    = 43.0003
RA_OF_ASC_NODE = 124.0263
ARG_OF_PERICENTER = 283.2629
MEAN_ANOMALY   = 76.7991

EPHEMERIS_TYPE = 0
CLASSIFICATION_TYPE = U
NORAD_CAT_ID   = 66596
ELEMENT_SET_NO = 999
REV_AT_EPOCH   = 629
BSTAR          = .25518E-3
MEAN_MOTION_DOT = .10375E-3
MEAN_MOTION_DDOT = 0

CCSDS_OMM_VERS = 2.0
CREATION_DATE  = 
ORIGINATOR     = 

OBJECT_NAME    = STARLINK-35820
OBJECT_ID      = 2025-270K
CENTER_NAME    = EARTH
REF_FRAME      = TEME
TIME_SYSTEM    = UTC
MEAN_ELEMENT_THEORY = SGP/SGP4

EPOCH          = 2025-12-24T01:39:32.434560
MEAN_MOTION    = 15.40696473
ECCENTRICITY   = .00013713
INCLINATION    = 43.0036
RA_OF_ASC_NODE = 127.3192
ARG_OF_PERICENTER = 264.1227
MEAN_ANOMALY   = 95.9474

EPHEMERIS_TYPE = 0
CLASSIFICATION_TYPE = U
NORAD_CAT_ID   = 66597
ELEMENT_SET_NO = 999
REV_AT_EPOCH   = 620
BSTAR          = .10460167E-2
MEAN_MOTION_DOT = .43636E-3
MEAN_MOTION_DDOT = 0

CCSDS_OMM_VERS = 2.0
CREATION_DATE  = 
ORIGINATOR     = 

OBJECT_NAME    = STARLINK-35981
OBJECT_ID      = 2025-270L
CENTER_NAME    = EARTH
REF_FRAME      = TEME
TIME_SYSTEM    = UTC
MEAN_ELEMENT_THEORY = SGP/SGP4

EPOCH          = 2025-12-24T19:57:12.000096
MEAN_MOTION    = 15.40722714
ECCENTRICITY   = .0003888
INCLINATION    = 43.0036
RA_OF_ASC_NODE = 122.7174
ARG_OF_PERICENTER = 275.1831
MEAN_ANOMALY   = 84.8581

EPHEMERIS_TYPE = 0
CLASSIFICATION_TYPE = U
NORAD_CAT_ID   = 66598
ELEMENT_SET_NO = 999
REV_AT_EPOCH   = 606
BSTAR          = .10776E-2
MEAN_MOTION_DOT = .45016E-3
MEAN_MOTION_DDOT = 0

CCSDS_OMM_VERS = 2.0
CREATION_DATE  = 
ORIGINATOR     = 

OBJECT_NAME    = STARLINK-35930
OBJECT_ID      = 2025-270M
CENTER_NAME    = EARTH
REF_FRAME      = TEME
TIME_SYSTEM    = UTC
MEAN_ELEMENT_THEORY = SGP/SGP4

EPOCH          = 2025-12-24T20:00:01.000224
MEAN_MOTION    = 15.40628332
ECCENTRICITY   = .000139
INCLINATION    = 43.0007
RA_OF_ASC_NODE = 122.3747
ARG_OF_PERICENTER = 268.7716
MEAN_ANOMALY   = 239.0522

EPHEMERIS_TYPE = 0
CLASSIFICATION_TYPE = U
NORAD_CAT_ID   = 66599
ELEMENT_SET_NO = 999
REV_AT_EPOCH   = 611
BSTAR          = .23535E-2
MEAN_MOTION_DOT = .99056E-3
MEAN_MOTION_DDOT = 0

CCSDS_OMM_VERS = 2.0
CREATION_DATE  = 
ORIGINATOR     = 

OBJECT_NAME    = STARLINK-35980
OBJECT_ID      = 2025-270N
CENTER_NAME    = EARTH
REF_FRAME      = TEME
TIME_SYSTEM    = UTC
MEAN_ELEMENT_THEORY = SGP/SGP4

EPOCH          = 2025-12-24T16:37:35.569056
MEAN_MOTION    = 15.40770465
ECCENTRICITY   = .0001319
INCLINATION    = 43.0002
RA_OF_ASC_NODE = 123.3929
ARG_OF_PERICENTER = 307.5991
MEAN_ANOMALY   = 52.4745

EPHEMERIS_TYPE = 0
CLASSIFICATION_TYPE = U
NORAD_CAT_ID   = 66600
ELEMENT_SET_NO = 999
REV_AT_EPOCH   = 609
BSTAR          = .19569E-2
MEAN_MOTION_DOT = .82524E-3
MEAN_MOTION_DDOT = 0

CCSDS_OMM_VERS = 2.0
CREATION_DATE  = 
ORIGINATOR     = 

OBJECT_NAME    = STARLINK-35978
OBJECT_ID      = 2025-270P
CENTER_NAME    = EARTH
REF_FRAME      = TEME
TIME_SYSTEM    = UTC
MEAN_ELEMENT_THEORY = SGP/SGP4

EPOCH          = 2025-12-24T15:30:02.252160
MEAN_MOTION    = 15.40701437
ECCENTRICITY   = .0002283
INCLINATION    = 43.0014
RA_OF_ASC_NODE = 123.9041
ARG_OF_PERICENTER = 277.4701
MEAN_ANOMALY   = 82.5896

EPHEMERIS_TYPE = 0
CLASSIFICATION_TYPE = U
NORAD_CAT_ID   = 66601
ELEMENT_SET_NO = 999
REV_AT_EPOCH   = 602
BSTAR          = .10245E-2
MEAN_MOTION_DOT = .42734E-3
MEAN_MOTION_DDOT = 0

