STARLINK-35429          
1 66590U 25270C   25357.78964468  .00062426  00000+0  14865-2 0  9991
2 66590  43.0027 128.6594 0002193 269.5993  90.4612 15.40759913  6166
STARLINK-36058          
1 66591U 25270D   25358.00001156  .00010095  00000+0  24874-3 0  9991
2 66591  43.0007 127.2349 0001443 277.3057 258.0125 15.40684723  5990
STARLINK-36066          
1 66592U 25270E   25358.07360680  .00062601  00000+0  14926-2 0  9995
2 66592  43.0005 127.3548 0001493 281.5377  78.5312 15.40719830  5999
STARLINK-36031          
1 66593U 25270F   25358.05792743  .00041970  00000+0  10050-2 0  9993
2 66593  43.0006 127.2322 0000863 287.0382  73.0380 15.40743840  6092
STARLINK-36032          
1 66594U 25270G   25357.65103035  .00042272  00000+0  10129-2 0  9992
2 66594  43.0045 129.3366 0003171 281.7400  78.3101 15.40717156  5846
STARLINK-35711          
1 66595U 25270H   25358.33336806  .00071050  00000+0  16954-2 0  9991
2 66595  43.0007 125.1923 0001530 251.6110  24.6525 15.40645202  6105
STARLINK-35811          
1 66596U 25270J   25358.66152590  .00010375  00000+0  25518-3 0  9994
2 66596  43.0003 124.0263 0002116 283.2629  76.7991 15.40712163  6290
STARLINK-35820          
1 66597U 25270K   25358.06912540  .00043636  00000+0  10460-2 0  9993
2 66597  43.0036 127.3192 0001371 264.1227  95.9474 15.40696473  6203
STARLINK-35981          
1 66598U 25270L   25358.83138889  .00045016  00000+0  10776-2 0  9999
2 66598  43.0036 122.7174 0003888 275.1831  84.8581 15.40722714  6069
STARLINK-35930          
1 66599U 25270M   25358.83334491  .00099056  00000+0  23535-2 0  9997
2 66599  43.0007 122.3747 0001390 268.7716 239.0522 15.40628332  6112
STARLINK-35980          
1 66600U 25270N   25358.69277279  .00082524  00000+0  19569-2 0  9998
2 66600  43.0002 123.3929 0001319 307.5991  52.4745 15.40770465  6097
STARLINK-35978          
1 66601U 25270P   25358.64585940  .00042734  00000+0  10245-2 0  9992
2 66601  43.0014 123.9041 0002283 277.4701  82.5896 15.40701437  6024
